[
    {
        "Altitude(m)": 710304.5401631364,
        "Argument of Periapsis(deg)": 0.005695060593313534,
        "Eccentricity": 0.0,
        "Inclination(deg)": 45.0,
        "Latitude(deg)": -26.28651665978465,
        "Longitude(deg)": -75.94657492185698,
        "Mean Anomaly(deg)": -141.5060916762596,
        "RAAN(deg)": 174.9946240292709,
        "Satellite Name": "Constellation 1 783",
        "Satellite Number": 783,
        "Semi-Major Axis(m)": 7083131.272910544,
        "Time(s)": 95
    },
    {
        "Altitude(m)": 710318.3802843649,
        "Argument of Periapsis(deg)": 0.00575500859955894,
        "Eccentricity": 0.0,
        "Inclination(deg)": 45.0,
        "Latitude(deg)": -26.32402023030262,
        "Longitude(deg)": -75.89750261470039,
        "Mean Anomaly(deg)": -141.44539053600968,
        "RAAN(deg)": 174.99456744010533,
        "Satellite Name": "Constellation 1 783",
        "Satellite Number": 783,
        "Semi-Major Axis(m)": 7083131.272910544,
        "Time(s)": 96
    },
    {
        "Altitude(m)": 710332.2211615389,
        "Argument of Periapsis(deg)": 0.005814956605804345,
        "Eccentricity": 0.0,
        "Inclination(deg)": 45.0,
        "Latitude(deg)": -26.361503785522697,
        "Longitude(deg)": -75.84839602278228,
        "Mean Anomaly(deg)": -141.38468939575978,
        "RAAN(deg)": 174.99451085093978,
        "Satellite Name": "Constellation 1 783",
        "Satellite Number": 783,
        "Semi-Major Axis(m)": 7083131.272910544,
        "Time(s)": 97
    },
    {
        "Altitude(m)": 710346.0627471484,
        "Argument of Periapsis(deg)": 0.00587490461204975,
        "Eccentricity": 0.0,
        "Inclination(deg)": 45.0,
        "Latitude(deg)": -26.398967280550103,
        "Longitude(deg)": -75.799255254066,
        "Mean Anomaly(deg)": -141.32398825550985,
        "RAAN(deg)": 174.9944542617742,
        "Satellite Name": "Constellation 1 783",
        "Satellite Number": 783,
        "Semi-Major Axis(m)": 7083131.272910544,
        "Time(s)": 98
    },
    {
        "Altitude(m)": 710359.9049936885,
        "Argument of Periapsis(deg)": 0.005934852618295156,
        "Eccentricity": 0.0,
        "Inclination(deg)": 45.0,
        "Latitude(deg)": -26.436410670424582,
        "Longitude(deg)": -75.75008024842438,
        "Mean Anomaly(deg)": -141.26328711526,
        "RAAN(deg)": 174.9943976726086,
        "Satellite Name": "Constellation 1 783",
        "Satellite Number": 783,
        "Semi-Major Axis(m)": 7083131.272910544,
        "Time(s)": 99
    },
    {
        "Altitude(m)": 710373.7478536253,
        "Argument of Periapsis(deg)": 0.005994800624540561,
        "Eccentricity": 0.0,
        "Inclination(deg)": 45.0,
        "Latitude(deg)": -26.47383391012074,
        "Longitude(deg)": -75.70087094573736,
        "Mean Anomaly(deg)": -141.20258597501007,
        "RAAN(deg)": 174.99434108344306,
        "Satellite Name": "Constellation 1 783",
        "Satellite Number": 783,
        "Semi-Major Axis(m)": 7083131.272910544,
        "Time(s)": 100
    },
    {
        "Altitude(m)": 710387.5912794177,
        "Argument of Periapsis(deg)": 0.006054748630785968,
        "Eccentricity": 0.0,
        "Inclination(deg)": 45.0,
        "Latitude(deg)": -26.511236954547744,
        "Longitude(deg)": -75.65162728589223,
        "Mean Anomaly(deg)": -141.1418848347602,
        "RAAN(deg)": 174.99428449427748,
        "Satellite Name": "Constellation 1 783",
        "Satellite Number": 783,
        "Semi-Major Axis(m)": 7083131.272910544,
        "Time(s)": 101
    },
    {
        "Altitude(m)": 710401.4352235042,
        "Argument of Periapsis(deg)": 0.006114696637031373,
        "Eccentricity": 0.0,
        "Inclination(deg)": 45.0,
        "Latitude(deg)": -26.548619758549027,
        "Longitude(deg)": -75.60234920878466,
        "Mean Anomaly(deg)": -141.08118369451034,
        "RAAN(deg)": 174.99422790511193,
        "Satellite Name": "Constellation 1 783",
        "Satellite Number": 783,
        "Semi-Major Axis(m)": 7083131.272910544,
        "Time(s)": 102
    },
    {
        "Altitude(m)": 710415.2796383158,
        "Argument of Periapsis(deg)": 0.006174644643276778,
        "Eccentricity": 0.0,
        "Inclination(deg)": 45.0,
        "Latitude(deg)": -26.58598227690259,
        "Longitude(deg)": -75.55303665431816,
        "Mean Anomaly(deg)": -141.02048255426035,
        "RAAN(deg)": 174.99417131594635,
        "Satellite Name": "Constellation 1 783",
        "Satellite Number": 783,
        "Semi-Major Axis(m)": 7083131.272910544,
        "Time(s)": 103
    },
    {
        "Altitude(m)": 710429.1244762683,
        "Argument of Periapsis(deg)": 0.006234592649522184,
        "Eccentricity": 0.0,
        "Inclination(deg)": 45.0,
        "Latitude(deg)": -26.62332446432053,
        "Longitude(deg)": -75.50368973050259,
        "Mean Anomaly(deg)": -140.95978141401048,
        "RAAN(deg)": 174.99411472678077,
        "Satellite Name": "Constellation 1 783",
        "Satellite Number": 783,
        "Semi-Major Axis(m)": 7083131.272910544,
        "Time(s)": 104
    },
    {
        "Altitude(m)": 710442.9696897599,
        "Argument of Periapsis(deg)": 0.00629454065576759,
        "Eccentricity": 0.0,
        "Inclination(deg)": 45.0,
        "Latitude(deg)": -26.660646275449366,
        "Longitude(deg)": -75.45430804106486,
        "Mean Anomaly(deg)": -140.89908027376055,
        "RAAN(deg)": 174.9940581376152,
        "Satellite Name": "Constellation 1 783",
        "Satellite Number": 783,
        "Semi-Major Axis(m)": 7083131.272910544,
        "Time(s)": 105
    },
    {
        "Altitude(m)": 710456.8152311837,
        "Argument of Periapsis(deg)": 0.006354488662012995,
        "Eccentricity": 0.0,
        "Inclination(deg)": 45.0,
        "Latitude(deg)": -26.69794766486941,
        "Longitude(deg)": -75.40489169403337,
        "Mean Anomaly(deg)": -140.83837913351067,
        "RAAN(deg)": 174.99400154844963,
        "Satellite Name": "Constellation 1 783",
        "Satellite Number": 783,
        "Semi-Major Axis(m)": 7083131.272910544,
        "Time(s)": 106
    },
    {
        "Altitude(m)": 710470.6610529084,
        "Argument of Periapsis(deg)": 0.006414436668258401,
        "Eccentricity": 0.0,
        "Inclination(deg)": 45.0,
        "Latitude(deg)": -26.735228587095406,
        "Longitude(deg)": -75.35544062934864,
        "Mean Anomaly(deg)": -140.77767799326077,
        "RAAN(deg)": 174.99394495928408,
        "Satellite Name": "Constellation 1 783",
        "Satellite Number": 783,
        "Semi-Major Axis(m)": 7083131.272910544,
        "Time(s)": 107
    },
    {
        "Altitude(m)": 710484.5071072992,
        "Argument of Periapsis(deg)": 0.0064743846745038075,
        "Eccentricity": 0.0,
        "Inclination(deg)": 45.0,
        "Latitude(deg)": -26.772488996575714,
        "Longitude(deg)": -75.30595478696206,
        "Mean Anomaly(deg)": -140.7169768530109,
        "RAAN(deg)": 174.99388837011847,
        "Satellite Name": "Constellation 1 783",
        "Satellite Number": 783,
        "Semi-Major Axis(m)": 7083131.272910544,
        "Time(s)": 108
    },
    {
        "Altitude(m)": 710498.3533467074,
        "Argument of Periapsis(deg)": 0.0065343326807492125,
        "Eccentricity": 0.0,
        "Inclination(deg)": 45.0,
        "Latitude(deg)": -26.809728847692764,
        "Longitude(deg)": -75.25643410683512,
        "Mean Anomaly(deg)": -140.656275712761,
        "RAAN(deg)": 174.99383178095292,
        "Satellite Name": "Constellation 1 783",
        "Satellite Number": 783,
        "Semi-Major Axis(m)": 7083131.272910544,
        "Time(s)": 109
    },
    {
        "Altitude(m)": 710512.1997234676,
        "Argument of Periapsis(deg)": 0.0065942806869946176,
        "Eccentricity": 0.0,
        "Inclination(deg)": 45.0,
        "Latitude(deg)": -26.84694809476257,
        "Longitude(deg)": -75.20687852894073,
        "Mean Anomaly(deg)": -140.59557457251108,
        "RAAN(deg)": 174.99377519178736,
        "Satellite Name": "Constellation 1 783",
        "Satellite Number": 783,
        "Semi-Major Axis(m)": 7083131.272910544,
        "Time(s)": 110
    },
    {
        "Altitude(m)": 710526.0461899012,
        "Argument of Periapsis(deg)": 0.006654228693240024,
        "Eccentricity": 0.0,
        "Inclination(deg)": 45.0,
        "Latitude(deg)": -26.884146692035035,
        "Longitude(deg)": -75.15728816136033,
        "Mean Anomaly(deg)": -140.53487343226115,
        "RAAN(deg)": 174.99371860262178,
        "Satellite Name": "Constellation 1 783",
        "Satellite Number": 783,
        "Semi-Major Axis(m)": 7083131.272910544,
        "Time(s)": 111
    },
    {
        "Altitude(m)": 710539.8926983272,
        "Argument of Periapsis(deg)": 0.006714176699485429,
        "Eccentricity": 0.0,
        "Inclination(deg)": 45.0,
        "Latitude(deg)": -26.92132459369341,
        "Longitude(deg)": -75.10766260789563,
        "Mean Anomaly(deg)": -140.47417229201133,
        "RAAN(deg)": 174.99366201345623,
        "Satellite Name": "Constellation 1 783",
        "Satellite Number": 783,
        "Semi-Major Axis(m)": 7083131.272910544,
        "Time(s)": 112
    },
    {
        "Altitude(m)": 710553.7392010399,
        "Argument of Periapsis(deg)": 0.006774124705730835,
        "Eccentricity": 0.0,
        "Inclination(deg)": 45.0,
        "Latitude(deg)": -26.958481753854734,
        "Longitude(deg)": -75.0580019766521,
        "Mean Anomaly(deg)": -140.41347115176137,
        "RAAN(deg)": 174.99360542429065,
        "Satellite Name": "Constellation 1 783",
        "Satellite Number": 783,
        "Semi-Major Axis(m)": 7083131.272910544,
        "Time(s)": 113
    }
]